CCSDS_OMM_VERS = 2.0
CREATION_DATE  = 
ORIGINATOR     = 

OBJECT_NAME    = STARLINK-36861
OBJECT_ID      = 2026-037C
CENTER_NAME    = EARTH
REF_FRAME      = TEME
TIME_SYSTEM    = UTC
MEAN_ELEMENT_THEORY = SGP/SGP4

EPOCH          = 2026-03-21T04:00:00.999936
MEAN_MOTION    = 15.64367577
ECCENTRICITY   = .00013151
INCLINATION    = 42.9989
RA_OF_ASC_NODE = 128.5559
ARG_OF_PERICENTER = 281.1958
MEAN_ANOMALY   = 149.1300

EPHEMERIS_TYPE = 0
CLASSIFICATION_TYPE = U
NORAD_CAT_ID   = 67934
ELEMENT_SET_NO = 999
REV_AT_EPOCH   = 504
BSTAR          = -.22420739E-1
MEAN_MOTION_DOT = -.1948968E-1
MEAN_MOTION_DDOT = 0

CCSDS_OMM_VERS = 2.0
CREATION_DATE  = 
ORIGINATOR     = 

OBJECT_NAME    = STARLINK-36860
OBJECT_ID      = 2026-037D
CENTER_NAME    = EARTH
REF_FRAME      = TEME
TIME_SYSTEM    = UTC
MEAN_ELEMENT_THEORY = SGP/SGP4

EPOCH          = 2026-03-21T04:00:00.999936
MEAN_MOTION    = 15.56845955
ECCENTRICITY   = .00012027
INCLINATION    = 42.9991
RA_OF_ASC_NODE = 128.8889
ARG_OF_PERICENTER = 268.2698
MEAN_ANOMALY   = 28.0718

EPHEMERIS_TYPE = 0
CLASSIFICATION_TYPE = U
NORAD_CAT_ID   = 67935
ELEMENT_SET_NO = 999
REV_AT_EPOCH   = 504
BSTAR          = -.29096512E-1
MEAN_MOTION_DOT = -.1894541E-1
MEAN_MOTION_DDOT = 0

CCSDS_OMM_VERS = 2.0
CREATION_DATE  = 
ORIGINATOR     = 

OBJECT_NAME    = STARLINK-36848
OBJECT_ID      = 2026-037E
CENTER_NAME    = EARTH
REF_FRAME      = TEME
TIME_SYSTEM    = UTC
MEAN_ELEMENT_THEORY = SGP/SGP4

EPOCH          = 2026-03-21T04:00:00.999936
MEAN_MOTION    = 15.54370507
ECCENTRICITY   = .00012559
INCLINATION    = 42.9994
RA_OF_ASC_NODE = 129.0070
ARG_OF_PERICENTER = 268.6602
MEAN_ANOMALY   = 339.8614

EPHEMERIS_TYPE = 0
CLASSIFICATION_TYPE = U
NORAD_CAT_ID   = 67936
ELEMENT_SET_NO = 999
REV_AT_EPOCH   = 504
BSTAR          = -.31969814E-1
MEAN_MOTION_DOT = -.1897302E-1
MEAN_MOTION_DDOT = 0

CCSDS_OMM_VERS = 2.0
CREATION_DATE  = 
ORIGINATOR     = 

OBJECT_NAME    = STARLINK-36370
OBJECT_ID      = 2026-037F
CENTER_NAME    = EARTH
REF_FRAME      = TEME
TIME_SYSTEM    = UTC
MEAN_ELEMENT_THEORY = SGP/SGP4

EPOCH          = 2026-03-21T04:00:00.999936
MEAN_MOTION    = 15.57731398
ECCENTRICITY   = .00011886
INCLINATION    = 42.9992
RA_OF_ASC_NODE = 128.8323
ARG_OF_PERICENTER = 261.7210
MEAN_ANOMALY   = 57.7368

EPHEMERIS_TYPE = 0
CLASSIFICATION_TYPE = U
NORAD_CAT_ID   = 67937
ELEMENT_SET_NO = 999
REV_AT_EPOCH   = 504
BSTAR          = -.28131224E-1
MEAN_MOTION_DOT = -.1894196E-1
MEAN_MOTION_DDOT = 0

CCSDS_OMM_VERS = 2.0
CREATION_DATE  = 
ORIGINATOR     = 

OBJECT_NAME    = STARLINK-36371
OBJECT_ID      = 2026-037G
CENTER_NAME    = EARTH
REF_FRAME      = TEME
TIME_SYSTEM    = UTC
MEAN_ELEMENT_THEORY = SGP/SGP4

EPOCH          = 2026-03-21T04:00:00.999936
MEAN_MOTION    = 15.61621771
ECCENTRICITY   = .00014093
INCLINATION    = 42.9986
RA_OF_ASC_NODE = 128.6231
ARG_OF_PERICENTER = 273.9729
MEAN_ANOMALY   = 128.8605

EPHEMERIS_TYPE = 0
CLASSIFICATION_TYPE = U
NORAD_CAT_ID   = 67938
ELEMENT_SET_NO = 999
REV_AT_EPOCH   = 504
BSTAR          = -.24248951E-1
MEAN_MOTION_DOT = -.1897169E-1
MEAN_MOTION_DDOT = 0

CCSDS_OMM_VERS = 2.0
CREATION_DATE  = 
ORIGINATOR     = 

OBJECT_NAME    = STARLINK-36246
OBJECT_ID      = 2026-037H
CENTER_NAME    = EARTH
REF_FRAME      = TEME
TIME_SYSTEM    = UTC
MEAN_ELEMENT_THEORY = SGP/SGP4

EPOCH          = 2026-03-21T04:00:00.999936
MEAN_MOTION    = 15.55170934
ECCENTRICITY   = .00012551
INCLINATION    = 42.9991
RA_OF_ASC_NODE = 128.9383
ARG_OF_PERICENTER = 265.9132
MEAN_ANOMALY   = 10.0573

EPHEMERIS_TYPE = 0
CLASSIFICATION_TYPE = U
NORAD_CAT_ID   = 67939
ELEMENT_SET_NO = 999
REV_AT_EPOCH   = 495
BSTAR          = -.309296E-1
MEAN_MOTION_DOT = -.1891709E-1
MEAN_MOTION_DDOT = 0

CCSDS_OMM_VERS = 2.0
CREATION_DATE  = 
ORIGINATOR     = 

OBJECT_NAME    = STARLINK-36907
OBJECT_ID      = 2026-037J
CENTER_NAME    = EARTH
REF_FRAME      = TEME
TIME_SYSTEM    = UTC
MEAN_ELEMENT_THEORY = SGP/SGP4

EPOCH          = 2026-03-21T04:00:00.999936
MEAN_MOTION    = 15.66573406
ECCENTRICITY   = .00010199
INCLINATION    = 42.9991
RA_OF_ASC_NODE = 128.3907
ARG_OF_PERICENTER = 273.7866
MEAN_ANOMALY   = 222.1701

EPHEMERIS_TYPE = 0
CLASSIFICATION_TYPE = U
NORAD_CAT_ID   = 67940
ELEMENT_SET_NO = 999
REV_AT_EPOCH   = 504
BSTAR          = -.20499378E-1
MEAN_MOTION_DOT = -.1948391E-1
MEAN_MOTION_DDOT = 0

CCSDS_OMM_VERS = 2.0
CREATION_DATE  = 
ORIGINATOR     = 

OBJECT_NAME    = STARLINK-36927
OBJECT_ID      = 2026-037K
CENTER_NAME    = EARTH
REF_FRAME      = TEME
TIME_SYSTEM    = UTC
MEAN_ELEMENT_THEORY = SGP/SGP4

EPOCH          = 2026-03-21T04:00:00.999936
MEAN_MOTION    = 15.63760775
ECCENTRICITY   = .00010038
INCLINATION    = 42.9989
RA_OF_ASC_NODE = 128.4698
ARG_OF_PERICENTER = 278.0207
MEAN_ANOMALY   = 185.7619

EPHEMERIS_TYPE = 0
CLASSIFICATION_TYPE = U
NORAD_CAT_ID   = 67941
ELEMENT_SET_NO = 999
REV_AT_EPOCH   = 504
BSTAR          = -.22741834E-1
MEAN_MOTION_DOT = -.1931516E-1
MEAN_MOTION_DDOT = 0

CCSDS_OMM_VERS = 2.0
CREATION_DATE  = 
ORIGINATOR     = 

OBJECT_NAME    = STARLINK-36914
OBJECT_ID      = 2026-037L
CENTER_NAME    = EARTH
REF_FRAME      = TEME
TIME_SYSTEM    = UTC
MEAN_ELEMENT_THEORY = SGP/SGP4

EPOCH          = 2026-03-21T04:00:00.999936
MEAN_MOTION    = 15.70755524
ECCENTRICITY   = .00008945
INCLINATION    = 42.9993
RA_OF_ASC_NODE = 128.2929
ARG_OF_PERICENTER = 268.9469
MEAN_ANOMALY   = 266.5633

EPHEMERIS_TYPE = 0
CLASSIFICATION_TYPE = U
NORAD_CAT_ID   = 67942
ELEMENT_SET_NO = 999
REV_AT_EPOCH   = 504
BSTAR          = -.17337003E-1
MEAN_MOTION_DOT = -.1959835E-1
MEAN_MOTION_DDOT = 0

CCSDS_OMM_VERS = 2.0
CREATION_DATE  = 
ORIGINATOR     = 

OBJECT_NAME    = STARLINK-36851
OBJECT_ID      = 2026-037M
CENTER_NAME    = EARTH
REF_FRAME      = TEME
TIME_SYSTEM    = UTC
MEAN_ELEMENT_THEORY = SGP/SGP4

EPOCH          = 2026-03-21T04:00:00.999936
MEAN_MOTION    = 15.64758056
ECCENTRICITY   = .00010428
INCLINATION    = 42.9989
RA_OF_ASC_NODE = 128.4647
ARG_OF_PERICENTER = 272.5859
MEAN_ANOMALY   = 193.4935

EPHEMERIS_TYPE = 0
CLASSIFICATION_TYPE = U
NORAD_CAT_ID   = 67943
ELEMENT_SET_NO = 999
REV_AT_EPOCH   = 504
BSTAR          = -.22114778E-1
MEAN_MOTION_DOT = -.1952144E-1
MEAN_MOTION_DDOT = 0

CCSDS_OMM_VERS = 2.0
CREATION_DATE  = 
ORIGINATOR     = 

OBJECT_NAME    = STARLINK-36892
OBJECT_ID      = 2026-037N
CENTER_NAME    = EARTH
REF_FRAME      = TEME
TIME_SYSTEM    = UTC
MEAN_ELEMENT_THEORY = SGP/SGP4

EPOCH          = 2026-03-21T04:00:00.999936
MEAN_MOTION    = 15.65562878
ECCENTRICITY   = .00010583
INCLINATION    = 42.9987
RA_OF_ASC_NODE = 128.4150
ARG_OF_PERICENTER = 274.8749
MEAN_ANOMALY   = 211.4345

EPHEMERIS_TYPE = 0
CLASSIFICATION_TYPE = U
NORAD_CAT_ID   = 67944
ELEMENT_SET_NO = 999
REV_AT_EPOCH   = 504
BSTAR          = -.21391302E-1
MEAN_MOTION_DOT = -.1950887E-1
MEAN_MOTION_DDOT = 0

CCSDS_OMM_VERS = 2.0
CREATION_DATE  = 
ORIGINATOR     = 

OBJECT_NAME    = STARLINK-36908
OBJECT_ID      = 2026-037P
CENTER_NAME    = EARTH
REF_FRAME      = TEME
TIME_SYSTEM    = UTC
MEAN_ELEMENT_THEORY = SGP/SGP4

EPOCH          = 2026-03-21T04:00:00.999936
MEAN_MOTION    = 15.66400366
ECCENTRICITY   = .00009292
INCLINATION    = 42.9990
RA_OF_ASC_NODE = 128.3642
ARG_OF_PERICENTER = 272.4874
MEAN_ANOMALY   = 233.9764

EPHEMERIS_TYPE = 0
CLASSIFICATION_TYPE = U
NORAD_CAT_ID   = 67945
ELEMENT_SET_NO = 999
REV_AT_EPOCH   = 504
BSTAR          = -.20609099E-1
MEAN_MOTION_DOT = -.1945349E-1
MEAN_MOTION_DDOT = 0

